{
  "type": "FeatureCollection",
  "features": [
    {
      "type": "Feature",
      "properties": {
        "norad_id": 34854,
        "name": "COSMOS 2251 DEB",
        "group": "cosmos-2251-debris",
        "lat": -53.3954020186036,
        "lon": 108.7964581855064,
        "alt_km": 625.0965484663684,
        "timestamp": "2025-12-26T13:39:19.375352+00:00",
        "meta_object_name": "COSMOS 2251 DEB",
        "meta_object_id": "1993-036ABY",
        "meta_epoch": "2025-12-24T03:22:47.701632",
        "meta_mean_motion": 14.76734417,
        "meta_eccentricity": 0.00659344,
        "meta_inclination": 74.0296,
        "meta_ra_of_asc_node": 136.2324,
        "meta_arg_of_pericenter": 245.6439,
        "meta_mean_anomaly": 113.7843,
        "meta_ephemeris_type": 0,
        "meta_classification_type": "U",
        "meta_norad_cat_id": 34854,
        "meta_element_set_no": 999,
        "meta_rev_at_epoch": 72050,
        "meta_bstar": 0.00083194152,
        "meta_mean_motion_dot": 6.009e-05,
        "meta_mean_motion_ddot": 0,
        "tle_line1": "1 34854U 93036ABY 25358.14082988  .00006009  00000+0  83194-3 0  9990",
        "tle_line2": "2 34854  74.0296 136.2324 0065934 245.6439 113.7843 14.76734417720500"
      },
      "geometry": {
        "type": "Point",
        "coordinates": [
          108.7964581855064,
          -53.3954020186036
        ]
      }
    },
    {
      "type": "Feature",
      "properties": {
        "norad_id": 34856,
        "name": "COSMOS 2251 DEB",
        "group": "cosmos-2251-debris",
        "lat": 51.31472791290522,
        "lon": 77.39941932964638,
        "alt_km": 556.747455984002,
        "timestamp": "2025-12-26T13:39:19.375363+00:00",
        "meta_object_name": "COSMOS 2251 DEB",
        "meta_object_id": "1993-036ACA",
        "meta_epoch": "2025-12-26T05:43:08.774400",
        "meta_mean_motion": 15.06728758,
        "meta_eccentricity": 0.00309141,
        "meta_inclination": 73.9961,
        "meta_ra_of_asc_node": 57.0752,
        "meta_arg_of_pericenter": 192.309,
        "meta_mean_anomaly": 229.383,
        "meta_ephemeris_type": 0,
        "meta_classification_type": "U",
        "meta_norad_cat_id": 34856,
        "meta_element_set_no": 999,
        "meta_rev_at_epoch": 89315,
        "meta_bstar": 0.0015496625,
        "meta_mean_motion_dot": 0.00023326,
        "meta_mean_motion_ddot": 0,
        "tle_line1": "1 34856U 93036ACA 25360.23829600  .00023326  00000+0  15497-2 0  9996",
        "tle_line2": "2 34856  73.9961  57.0752 0030914 192.3090 229.3830 15.06728758893152"
      },
      "geometry": {
        "type": "Point",
        "coordinates": [
          77.39941932964638,
          51.31472791290522
        ]
      }
    },
    {
      "type": "Feature",
      "properties": {
        "norad_id": 34857,
        "name": "COSMOS 2251 DEB",
        "group": "cosmos-2251-debris",
        "lat": -42.693704284829764,
        "lon": -84.21608485022264,
        "alt_km": 659.9406455440303,
        "timestamp": "2025-12-26T13:39:19.375373+00:00",
        "meta_object_name": "COSMOS 2251 DEB",
        "meta_object_id": "1993-036ACB",
        "meta_epoch": "2025-12-25T22:22:17.277024",
        "meta_mean_motion": 14.59019942,
        "meta_eccentricity": 0.0065195,
        "meta_inclination": 74.0153,
        "meta_ra_of_asc_node": 81.664,
        "meta_arg_of_pericenter": 203.6536,
        "meta_mean_anomaly": 277.2681,
        "meta_ephemeris_type": 0,
        "meta_classification_type": "U",
        "meta_norad_cat_id": 34857,
        "meta_element_set_no": 999,
        "meta_rev_at_epoch": 88093,
        "meta_bstar": 0.0010256,
        "meta_mean_motion_dot": 4.934e-05,
        "meta_mean_motion_ddot": 0,
        "tle_line1": "1 34857U 93036ACB 25359.93214441  .00004934  00000+0  10256-2 0  9995",
        "tle_line2": "2 34857  74.0153  81.6640 0065195 203.6536 277.2681 14.59019942880930"
      },
      "geometry": {
        "type": "Point",
        "coordinates": [
          -84.21608485022264,
          -42.693704284829764
        ]
      }
    },
    {
      "type": "Feature",
      "properties": {
        "norad_id": 34859,
        "name": "COSMOS 2251 DEB",
        "group": "cosmos-2251-debris",
        "lat": 53.102393742737725,
        "lon": 108.42275305528084,
        "alt_km": 510.26349062202553,
        "timestamp": "2025-12-26T13:39:19.375383+00:00",
        "meta_object_name": "COSMOS 2251 DEB",
        "meta_object_id": "1993-036ACD",
        "meta_epoch": "2025-12-25T03:55:54.017760",
        "meta_mean_motion": 15.16596022,
        "meta_eccentricity": 0.0001286,
        "meta_inclination": 74.0314,
        "meta_ra_of_asc_node": 313.7742,
        "meta_arg_of_pericenter": 32.3004,
        "meta_mean_anomaly": 342.3183,
        "meta_ephemeris_type": 0,
        "meta_classification_type": "U",
        "meta_norad_cat_id": 34859,
        "meta_element_set_no": 999,
        "meta_rev_at_epoch": 88547,
        "meta_bstar": 0.0039257,
        "meta_mean_motion_dot": 0.00077507,
        "meta_mean_motion_ddot": 0,
        "tle_line1": "1 34859U 93036ACD 25359.16381965  .00077507  00000+0  39257-2 0  9996",
        "tle_line2": "2 34859  74.0314 313.7742 0001286  32.3004 342.3183 15.16596022885479"
      },
      "geometry": {
        "type": "Point",
        "coordinates": [
          108.42275305528084,
          53.102393742737725
        ]
      }
    },
    {
      "type": "Feature",
      "properties": {
        "norad_id": 34861,
        "name": "COSMOS 2251 DEB",
        "group": "cosmos-2251-debris",
        "lat": 61.79124128747855,
        "lon": 170.28712666688497,
        "alt_km": 551.279673835711,
        "timestamp": "2025-12-26T13:39:19.375393+00:00",
        "meta_object_name": "COSMOS 2251 DEB",
        "meta_object_id": "1993-036ACF",
        "meta_epoch": "2025-12-26T02:06:27.558144",
        "meta_mean_motion": 15.03413607,
        "meta_eccentricity": 0.0008477,
        "meta_inclination": 74.0187,
        "meta_ra_of_asc_node": 23.5666,
        "meta_arg_of_pericenter": 11.1774,
        "meta_mean_anomaly": 19.1672,
        "meta_ephemeris_type": 0,
        "meta_classification_type": "U",
        "meta_norad_cat_id": 34861,
        "meta_element_set_no": 999,
        "meta_rev_at_epoch": 88293,
        "meta_bstar": 0.0025674985,
        "meta_mean_motion_dot": 0.00035099,
        "meta_mean_motion_ddot": 0,
        "tle_line1": "1 34861U 93036ACF 25360.08781896  .00035099  00000+0  25675-2 0  9998",
        "tle_line2": "2 34861  74.0187  23.5666 0008477  11.1774  19.1672 15.03413607882932"
      },
      "geometry": {
        "type": "Point",
        "coordinates": [
          170.28712666688497,
          61.79124128747855
        ]
      }
    },
    {
      "type": "Feature",
      "properties": {
        "norad_id": 34874,
        "name": "COSMOS 2251 DEB",
        "group": "cosmos-2251-debris",
        "lat": -9.919783141287503,
        "lon": 45.498683333071,
        "alt_km": 767.5411100911906,
        "timestamp": "2025-12-26T13:39:19.375404+00:00",
        "meta_object_name": "COSMOS 2251 DEB",
        "meta_object_id": "1993-036ACM",
        "meta_epoch": "2025-12-24T22:24:14.356800",
        "meta_mean_motion": 14.36365151,
        "meta_eccentricity": 0.0050509,
        "meta_inclination": 74.0391,
        "meta_ra_of_asc_node": 51.3701,
        "meta_arg_of_pericenter": 72.6657,
        "meta_mean_anomaly": 104.1751,
        "meta_ephemeris_type": 0,
        "meta_classification_type": "U",
        "meta_norad_cat_id": 34874,
        "meta_element_set_no": 999,
        "meta_rev_at_epoch": 87219,
        "meta_bstar": 0.00083514,
        "meta_mean_motion_dot": 2.455e-05,
        "meta_mean_motion_ddot": 0,
        "tle_line1": "1 34874U 93036ACM 25358.93349950  .00002455  00000+0  83514-3 0  9991",
        "tle_line2": "2 34874  74.0391  51.3701 0050509  72.6657 104.1751 14.36365151872192"
      },
      "geometry": {
        "type": "Point",
        "coordinates": [
          45.498683333071,
          -9.919783141287503
        ]
      }
    },
    {
      "type": "Feature",
      "properties": {
        "norad_id": 34875,
        "name": "COSMOS 2251 DEB",
        "group": "cosmos-2251-debris",
        "lat": -47.237420623522716,
        "lon": 114.28418758276233,
        "alt_km": 728.9230770207441,
        "timestamp": "2025-12-26T13:39:19.375414+00:00",
        "meta_object_name": "COSMOS 2251 DEB",
        "meta_object_id": "1993-036ACN",
        "meta_epoch": "2025-12-24T15:33:22.942944",
        "meta_mean_motion": 14.48965081,
        "meta_eccentricity": 0.00162603,
        "meta_inclination": 74.0438,
        "meta_ra_of_asc_node": 135.9032,
        "meta_arg_of_pericenter": 258.7537,
        "meta_mean_anomaly": 116.0666,
        "meta_ephemeris_type": 0,
        "meta_classification_type": "U",
        "meta_norad_cat_id": 34875,
        "meta_element_set_no": 999,
        "meta_rev_at_epoch": 87928,
        "meta_bstar": 0.00046663388,
        "meta_mean_motion_dot": 1.744e-05,
        "meta_mean_motion_ddot": 0,
        "tle_line1": "1 34875U 93036ACN 25358.64818221  .00001744  00000+0  46663-3 0  9996",
        "tle_line2": "2 34875  74.0438 135.9032 0016260 258.7537 116.0666 14.48965081879286"
      },
      "geometry": {
        "type": "Point",
        "coordinates": [
          114.28418758276233,
          -47.237420623522716
        ]
      }
    }
  ]
}